[{"OBJECT_NAME":"STARLINK-36645","OBJECT_ID":"2026-025Q","EPOCH":"2026-03-06T06:40:52.095936","MEAN_MOTION":15.7520994,"ECCENTRICITY":7.869e-5,"INCLINATION":97.2851,"RA_OF_ASC_NODE":176.6968,"ARG_OF_PERICENTER":39.3582,"MEAN_ANOMALY":320.774,"EPHEMERIS_TYPE":0,"CLASSIFICATION_TYPE":"U","NORAD_CAT_ID":67707,"ELEMENT_SET_NO":999,"REV_AT_EPOCH":540,"BSTAR":0.0010372885,"MEAN_MOTION_DOT":0.00157611,"MEAN_MOTION_DDOT":0},{"OBJECT_NAME":"STARLINK-36287","OBJECT_ID":"2026-025R","EPOCH":"2026-03-06T20:00:00.999360","MEAN_MOTION":15.75197109,"ECCENTRICITY":0.0001488,"INCLINATION":97.2846,"RA_OF_ASC_NODE":177.3656,"ARG_OF_PERICENTER":95.5497,"MEAN_ANOMALY":13.4533,"EPHEMERIS_TYPE":0,"CLASSIFICATION_TYPE":"U","NORAD_CAT_ID":67708,"ELEMENT_SET_NO":999,"REV_AT_EPOCH":555,"BSTAR":-0.00011278,"MEAN_MOTION_DOT":-0.00016923,"MEAN_MOTION_DDOT":0},{"OBJECT_NAME":"STARLINK-36698","OBJECT_ID":"2026-025S","EPOCH":"2026-03-06T20:00:00.999360","MEAN_MOTION":15.75189978,"ECCENTRICITY":0.0001388,"INCLINATION":97.2854,"RA_OF_ASC_NODE":177.3837,"ARG_OF_PERICENTER":82.165,"MEAN_ANOMALY":70.8345,"EPHEMERIS_TYPE":0,"CLASSIFICATION_TYPE":"U","NORAD_CAT_ID":67709,"ELEMENT_SET_NO":999,"REV_AT_EPOCH":540,"BSTAR":6.7051e-6,"MEAN_MOTION_DOT":8.71e-6,"MEAN_MOTION_DDOT":0},{"OBJECT_NAME":"STARLINK-36344","OBJECT_ID":"2026-025T","EPOCH":"2026-03-06T06:00:43.284672","MEAN_MOTION":15.75343733,"ECCENTRICITY":0.00017223,"INCLINATION":97.2843,"RA_OF_ASC_NODE":176.7346,"ARG_OF_PERICENTER":136.4996,"MEAN_ANOMALY":223.6406,"EPHEMERIS_TYPE":0,"CLASSIFICATION_TYPE":"U","NORAD_CAT_ID":67710,"ELEMENT_SET_NO":999,"REV_AT_EPOCH":541,"BSTAR":0.0025668507,"MEAN_MOTION_DOT":0.00404094,"MEAN_MOTION_DDOT":0},{"OBJECT_NAME":"STARLINK-36687","OBJECT_ID":"2026-025U","EPOCH":"2026-03-06T07:06:31.925376","MEAN_MOTION":15.80870832,"ECCENTRICITY":0.00021644,"INCLINATION":97.2852,"RA_OF_ASC_NODE":176.8238,"ARG_OF_PERICENTER":358.701,"MEAN_ANOMALY":1.4252,"EPHEMERIS_TYPE":0,"CLASSIFICATION_TYPE":"U","NORAD_CAT_ID":67711,"ELEMENT_SET_NO":999,"REV_AT_EPOCH":542,"BSTAR":0.0010447993,"MEAN_MOTION_DOT":0.00205288,"MEAN_MOTION_DDOT":0},{"OBJECT_NAME":"STARLINK-36705","OBJECT_ID":"2026-025V","EPOCH":"2026-03-06T06:12:24.663456","MEAN_MOTION":15.75315574,"ECCENTRICITY":9.776e-5,"INCLINATION":97.2859,"RA_OF_ASC_NODE":176.7196,"ARG_OF_PERICENTER":100.2586,"MEAN_ANOMALY":259.8789,"EPHEMERIS_TYPE":0,"CLASSIFICATION_TYPE":"U","NORAD_CAT_ID":67712,"ELEMENT_SET_NO":999,"REV_AT_EPOCH":540,"BSTAR":0.0022827635,"MEAN_MOTION_DOT":0.00356927,"MEAN_MOTION_DDOT":0},{"OBJECT_NAME":"STARLINK-36708","OBJECT_ID":"2026-025W","EPOCH":"2026-03-06T20:00:00.999360","MEAN_MOTION":15.6459406,"ECCENTRICITY":0.0001859,"INCLINATION":97.2849,"RA_OF_ASC_NODE":177.3749,"ARG_OF_PERICENTER":67.9999,"MEAN_ANOMALY":64.4394,"EPHEMERIS_TYPE":0,"CLASSIFICATION_TYPE":"U","NORAD_CAT_ID":67713,"ELEMENT_SET_NO":999,"REV_AT_EPOCH":546,"BSTAR":-0.025246,"MEAN_MOTION_DOT":-0.02123459,"MEAN_MOTION_DDOT":0},{"OBJECT_NAME":"STARLINK-36702","OBJECT_ID":"2026-025X","EPOCH":"2026-03-06T20:00:00.999360","MEAN_MOTION":15.75247309,"ECCENTRICITY":6.12e-5,"INCLINATION":97.2857,"RA_OF_ASC_NODE":177.4032,"ARG_OF_PERICENTER":84.9034,"MEAN_ANOMALY":114.0614,"EPHEMERIS_TYPE":0,"CLASSIFICATION_TYPE":"U","NORAD_CAT_ID":67714,"ELEMENT_SET_NO":999,"REV_AT_EPOCH":519,"BSTAR":-0.00066562,"MEAN_MOTION_DOT":-0.00098512,"MEAN_MOTION_DDOT":0},{"OBJECT_NAME":"STARLINK-36718","OBJECT_ID":"2026-025Y","EPOCH":"2026-03-06T06:44:53.794752","MEAN_MOTION":15.80987205,"ECCENTRICITY":0.00010518,"INCLINATION":97.2862,"RA_OF_ASC_NODE":176.8433,"ARG_OF_PERICENTER":95.7163,"MEAN_ANOMALY":264.4225,"EPHEMERIS_TYPE":0,"CLASSIFICATION_TYPE":"U","NORAD_CAT_ID":67715,"ELEMENT_SET_NO":999,"REV_AT_EPOCH":541,"BSTAR":0.0017945599,"MEAN_MOTION_DOT":0.00361034,"MEAN_MOTION_DDOT":0},{"OBJECT_NAME":"STARLINK-36715","OBJECT_ID":"2026-025Z","EPOCH":"2026-03-06T06:47:51.857376","MEAN_MOTION":15.80935017,"ECCENTRICITY":0.00012748,"INCLINATION":97.2865,"RA_OF_ASC_NODE":176.843,"ARG_OF_PERICENTER":54.9262,"MEAN_ANOMALY":305.2126,"EPHEMERIS_TYPE":0,"CLASSIFICATION_TYPE":"U","NORAD_CAT_ID":67716,"ELEMENT_SET_NO":999,"REV_AT_EPOCH":541,"BSTAR":0.0016293459,"MEAN_MOTION_DOT":0.00325658,"MEAN_MOTION_DDOT":0},{"OBJECT_NAME":"STARLINK-36385","OBJECT_ID":"2026-025AA","EPOCH":"2026-03-06T06:56:52.342080","MEAN_MOTION":15.80863149,"ECCENTRICITY":0.00024699,"INCLINATION":97.2859,"RA_OF_ASC_NODE":176.833,"ARG_OF_PERICENTER":351.3086,"MEAN_ANOMALY":8.8139,"EPHEMERIS_TYPE":0,"CLASSIFICATION_TYPE":"U","NORAD_CAT_ID":67717,"ELEMENT_SET_NO":999,"REV_AT_EPOCH":541,"BSTAR":0.0010506344,"MEAN_MOTION_DOT":0.00206394,"MEAN_MOTION_DDOT":0},{"OBJECT_NAME":"CZ-2F DEB","OBJECT_ID":"2026-024E","EPOCH":"2026-03-05T22:33:30.313152","MEAN_MOTION":15.23940381,"ECCENTRICITY":0.02369853,"INCLINATION":50.3188,"RA_OF_ASC_NODE":37.1031,"ARG_OF_PERICENTER":265.1895,"MEAN_ANOMALY":92.197,"EPHEMERIS_TYPE":0,"CLASSIFICATION_TYPE":"U","NORAD_CAT_ID":67718,"ELEMENT_SET_NO":999,"REV_AT_EPOCH":406,"BSTAR":0.0040707196,"MEAN_MOTION_DOT":0.00230629,"MEAN_MOTION_DDOT":0},{"OBJECT_NAME":"CZ-2F DEB","OBJECT_ID":"2026-024F","EPOCH":"2026-03-06T14:57:47.690496","MEAN_MOTION":15.02698338,"ECCENTRICITY":0.03140371,"INCLINATION":49.793,"RA_OF_ASC_NODE":36.7004,"ARG_OF_PERICENTER":259.1583,"MEAN_ANOMALY":97.3875,"EPHEMERIS_TYPE":0,"CLASSIFICATION_TYPE":"U","NORAD_CAT_ID":67719,"ELEMENT_SET_NO":999,"REV_AT_EPOCH":378,"BSTAR":0.0039969323,"MEAN_MOTION_DOT":0.00167047,"MEAN_MOTION_DDOT":0},{"OBJECT_NAME":"CZ-2F DEB","OBJECT_ID":"2026-024G","EPOCH":"2026-03-06T09:44:27.242304","MEAN_MOTION":14.99894984,"ECCENTRICITY":0.03251923,"INCLINATION":49.8328,"RA_OF_ASC_NODE":38.3346,"ARG_OF_PERICENTER":254.3954,"MEAN_ANOMALY":102.0882,"EPHEMERIS_TYPE":0,"CLASSIFICATION_TYPE":"U","NORAD_CAT_ID":67720,"ELEMENT_SET_NO":999,"REV_AT_EPOCH":406,"BSTAR":0.0034504951,"MEAN_MOTION_DOT":0.00139708,"MEAN_MOTION_DDOT":0},{"OBJECT_NAME":"STARLINK-36772","OBJECT_ID":"2026-026A","EPOCH":"2026-03-06T20:00:00.999360","MEAN_MOTION":15.58324836,"ECCENTRICITY":0.0001774,"INCLINATION":97.2845,"RA_OF_ASC_NODE":120.3035,"ARG_OF_PERICENTER":62.7716,"MEAN_ANOMALY":50.1057,"EPHEMERIS_TYPE":0,"CLASSIFICATION_TYPE":"U","NORAD_CAT_ID":67721,"ELEMENT_SET_NO":999,"REV_AT_EPOCH":485,"BSTAR":-0.029508,"MEAN_MOTION_DOT":-0.01966617,"MEAN_MOTION_DDOT":0},{"OBJECT_NAME":"STARLINK-36796","OBJECT_ID":"2026-026B","EPOCH":"2026-03-06T20:00:00.999360","MEAN_MOTION":15.57457395,"ECCENTRICITY":0.0001819,"INCLINATION":97.2846,"RA_OF_ASC_NODE":120.2994,"ARG_OF_PERICENTER":67.3292,"MEAN_ANOMALY":36.1422,"EPHEMERIS_TYPE":0,"CLASSIFICATION_TYPE":"U","NORAD_CAT_ID":67722,"ELEMENT_SET_NO":999,"REV_AT_EPOCH":485,"BSTAR":-0.030652,"MEAN_MOTION_DOT":-0.01975824,"MEAN_MOTION_DDOT":0}]
